RAVAN                   
1 41849U 16067B   23171.40324798  .00006639  00000+0  46031-3 0  9997
2 41849  98.0368 325.9765 0016487 173.5975 186.5465 15.05865862361250
CELTEE 1                
1 41850U 16067C   23171.88030547  .00004512  00000+0  35214-3 0  9996
2 41850  98.0671 320.1492 0000993 182.2976 177.8243 15.01683331360976
OPTICUBE 04             
1 41851U 16067D   23171.86978635  .00002774  00000+0  22927-3 0  9999
2 41851  98.0436 318.3155 0012344 185.3860 174.7231 14.99779801360887
AEROCUBE 8D             
1 41852U 16067E   23171.84975033  .00004306  00000+0  33316-3 0  9994
2 41852  98.0669 319.2266 0004351 229.8641 130.2202 15.02037488360911
AEROCUBE 8C             
1 41853U 16067F   23171.37622700  .00004650  00000+0  36032-3 0  9993
2 41853  98.0451 318.2671 0008913 170.7578 189.3811 15.01914185360830
PROMETHEUS 2-1          
1 41854U 16067G   23171.88451031  .00010004  00000+0  69470-3 0  9999
2 41854  98.0699 321.8202 0016755 199.9171 160.1402 15.05660751361048
PROMETHEUS 2-3          
1 41855U 16067H   23171.87772938  .00009505  00000+0  66117-3 0  9990
2 41855  98.0618 321.6691 0013957 208.1334 151.9138 15.05647004361045
INS-1B                  
1 41954U 17008G   23171.68297395  .00075113  00000+0  99741-3 0  9991
2 41954  97.1982 232.3608 0001661 354.1439   5.9798 15.57975646353428
DIDO-2                  
1 42000U 17008BE  23170.90047870  .00018747  00000+0  47127-3 0  9990
2 42000  97.2002 226.9327 0006200  41.4747 318.6969 15.39987572352350
PEASSS                  
1 42015U 17008BV  23171.69923900  .00050793  00000+0  82641-3 0  9997
2 42015  97.2061 235.1843 0002432  24.9797 335.1574 15.52514221353405
AL-FARABI 1             
1 42016U 17008BW  23171.73204866  .00266518  00000+0  13826-2 0  9998
2 42016  97.2087 243.0243 0003722 229.2922 130.8023 15.80288339353980
NAYIF-1 (EO-88)         
1 42017U 17008BX  23171.75062817  .00313021  00000+0  14101-2 0  9998
2 42017  97.2066 243.2828 0004595 239.9173 120.1641 15.83235899354035
UCLSAT                  
1 42765U 17036A   23171.55014042  .00056037  00000+0  93067-3 0  9994
2 42765  97.1403 210.4705 0006932  91.7076 268.4972 15.51892290334403
AALTO-1                 
1 42775U 17036L   23171.65468079  .00018968  00000+0  54775-3 0  9993
2 42775  97.1509 201.5978 0011850  95.3480 264.9117 15.35638061333056
URSA MAIOR              
1 42776U 17036M   23171.32279293  .00022988  00000+0  62315-3 0  9992
2 42776  97.1514 202.6224 0011403  94.0026 266.2523 15.37577646333076
COMPASS 2               
1 42777U 17036N   23171.51078932  .01609260  19002-2  18208-2 0  9992
2 42777  97.1206 218.4374 0008878 229.0665 130.9851 16.09661960334072
DIAMOND RED             
1 42783U 17036U   23171.81512956  .00028728  00000+0  70206-3 0  9996
2 42783  97.1495 206.4283 0009658  95.9634 264.2714 15.40733451333356
PEGASUS                 
1 42784U 17036V   23171.38251300  .00046774  00000+0  90572-3 0  9991
2 42784  97.1455 208.7579 0008476  92.2031 268.0190 15.47545028333475
DIAMOND GREEN           
1 42785U 17036W   23171.55405339  .00029149  00000+0  68885-3 0  9993
2 42785  97.1491 206.3816 0009446  98.0079 262.2241 15.41747986333393
DIAMOND BLUE            
1 42786U 17036X   23170.60612474  .00029292  00000+0  70326-3 0  9991
2 42786  97.1494 205.3922 0009732  99.9107 260.3239 15.41266037333247
SUCHAI                  
1 42788U 17036Z   23171.76595520  .00085921  00000+0  11334-2 0  9997
2 42788  97.1424 212.9637 0006479  95.2307 264.9689 15.58091464333859
SKCUBE                  
1 42789U 17036AA  23171.65969966  .00057867  00000+0  94420-3 0  9991
2 42789  97.1422 211.2373 0007666  89.3738 270.8393 15.52374253333658
ROBUSTA 1B              
1 42792U 17036AD  23171.35710895  .00077402  00000+0  11072-2 0  9995
2 42792  97.1407 212.2016 0006042  93.1017 267.0929 15.55939295333705
CICERO 6                
1 42793U 17036AE  23171.39880628  .00023278  00000+0  60266-3 0  9994
2 42793  97.1482 206.1476 0008943  97.7350 262.4912 15.39019599333397
CORVUS BC2              
1 42846U 17042X   23171.80991699  .00002304  00000+0  21690-3 0  9992
2 42846  97.3856  12.7808 0008549 191.4418 168.6611 14.94738863323262
CORVUS BC1              
1 42847U 17042Y   23171.80094132  .00002058  00000+0  19381-3 0  9999
2 42847  97.3861  13.1287 0008257 189.1969 170.9102 14.94832028323276
MIRATA                  
1 43015U 17073C   23171.43563035  .00017649  00000+0  10965-2 0  9993
2 43015  97.6337  59.1035 0212430  44.4565 317.3485 14.92823221301978
MAKERSAT 0              
1 43016U 17073D   23171.67925009  .00012011  00000+0  80065-3 0  9990
2 43016  97.6320  57.4325 0227204  52.9650 309.2115 14.88445002301835
CORVUS BC3              
1 43118U 18004H   23171.72327770  .00021627  00000+0  56710-3 0  9998
2 43118  97.3244 246.0542 0008560 129.6067 230.5935 15.38648768302582
CICERO 7                
1 43143U 18004AJ  23171.83172115  .00057218  00000+0  83323-3 0  9994
2 43143  97.3399 258.5718 0004096 122.0472 238.1180 15.55543682303328
GOMX-4B                 
1 43196U 18015E   23171.85617343  .00017777  00000+0  49884-3 0  9993
2 43196  97.5795 322.8488 0014497 188.4410 171.6592 15.36524768299517
GOMX-4A                 
1 43197U 18015F   23171.85330934  .00020056  00000+0  50554-3 0  9992
2 43197  97.5792 324.9625 0013913 183.3676 176.7478 15.39818831299666
AEROCUBE 12B            
1 43557U 18046D   23171.49967191  .00150811  00000+0  98526-3 0  9991
2 43557  51.6234 168.8467 0006945 359.3295   0.7694 15.74826743276230
CUBEBEL-1 (BSUSAT-1)    
1 43666U 18083E   23171.84668172  .00034926  00000+0  92273-3 0  9990
2 43666  97.3787 203.4682 0011441 110.3108 249.9368 15.38291141257761
CICERO 10               
1 43690U 18088A   23171.74909031  .00019363  00000+0  54043-3 0  9994
2 43690  85.0315  70.1491 0009048 204.6743 155.4075 15.36565226256040
PROXIMA I               
1 43694U 18088E   23171.70293180  .00023222  00000+0  59145-3 0  9992
2 43694  85.0248  65.8186 0012963 169.8000 190.3517 15.39341932256328
PROXIMA II              
1 43696U 18088G   23171.71697948  .00023345  00000+0  59713-3 0  9992
2 43696  85.0247  65.8585 0013046 170.0672 190.0839 15.39209324256315
SIRION PATHFINDER-2     
1 43759U 18099B   23171.72770982  .00004304  00000+0  36104-3 0  9998
2 43759  97.5735 233.3122 0015630 102.5783 257.7189 14.98786550248155
CORVUS BC4              
1 43767U 18099K   23171.69322604  .00003745  00000+0  31978-3 0  9999
2 43767  97.5654 231.2283 0011955 111.1904 249.0597 14.98218274248055
MOVE-II                 
1 43780U 18099Y   23171.69711322  .00009521  00000+0  69547-3 0  9994
2 43780  97.5714 235.6492 0010782 134.6309 225.5797 15.03816750248267
SPACEBEE-7              
1 43816U 18099BL  23171.81296322  .00007817  00000+0  59052-3 0  9992
2 43816  97.5942 236.5846 0013018  86.3160 273.9553 15.02584103247850
SPACEBEE-5              
1 43817U 18099BM  23171.72284377  .00033457  00000+0  16597-2 0  9995
2 43817  97.5917 243.7915 0004759  96.2306 263.9470 15.17630535248231
SPACEBEE-6              
1 43818U 18099BN  23170.42905532  .00011464  00000+0  78629-3 0  9994
2 43818  97.5888 237.2746 0013764 107.3477 252.9257 15.06100345247901
SHIELDS 1               
1 43850U 18104B   23170.96488867  .00007416  00000+0  26483-3 0  9996
2 43850  85.0259 167.6206 0012470 359.6608   0.4627 15.28587354250532
STF-1                   
1 43852U 18104D   23171.78025590  .00036102  00000+0  81049-3 0  9992
2 43852  85.0236 164.7775 0008562   5.5709 354.5637 15.43177130250958
ZACUBE-2                
1 43907U 18111AH  23171.83954956  .00026301  00000+0  64163-3 0  9992
2 43907  97.1374  51.3603 0014443 191.2215 168.8712 15.40742595249719
LUME 1                  
1 43908U 18111AJ  23171.57439025  .00033304  00000+0  66350-3 0  9990
2 43908  97.1392  54.7848 0012873 176.0444 184.0911 15.46738084249915
MOVE-IIB                
1 44398U 19038N   23171.86465142  .00052525  00000+0  12687-2 0  9993
2 44398  97.6591 154.8523 0010005 270.8193  89.1906 15.40955179219237
SONATE                  
1 44400U 19038Q   23171.84891750  .00009711  00000+0  43416-3 0  9997
2 44400  97.6838 149.5695 0018667 302.0794  57.8628 15.21382339218797
LUCKY-7                 
1 44406U 19038W   23171.85909405  .00014224  00000+0  58366-3 0  9996
2 44406  97.6803 150.8715 0016708 296.2481  63.7038 15.24221095218889
BEESAT 9                
1 44412U 19038AC  23171.87332232  .00024927  00000+0  85295-3 0  9995
2 44412  97.6744 152.6326 0012744 294.7135  65.2778 15.30160455218723
JAISAT-1                
1 44419U 19038F   23171.88770803  .00024373  00000+0  82642-3 0  9991
2 44419  97.6736 153.7321 0011903 290.3749  69.6212 15.30472247219106
DUCHIFAT-3              
1 44854U 19089C   23171.78645346  .00008957  00000+0  60175-3 0  9999
2 44854  36.9628  69.7763 0009594 336.1904  23.8395 15.06306243193443
EYESAT-NANO             
1 44877U 19092E   23171.83006316  .00055618  00000+0  12695-2 0  9991
2 44877  97.4569   2.3431 0008411 130.1055 230.0931 15.42660607194665
M2 PATHFINDER           
1 45727U 20037E   23171.54486577  .00002658  00000+0  25408-3 0  9999
2 45727  97.7570 346.2267 0010935 250.9513 109.0523 14.94061910161749
NETSAT-4                
1 46504U 20068U   23171.82847088  .00005665  00000+0  37533-3 0  9999
2 46504  97.7635 117.6744 0012112 148.4657 211.7298 15.07652763149455
NETSAT-3                
1 46505U 20068V   23171.79576346  .00006430  00000+0  42748-3 0  9997
2 46505  97.7617 117.4625 0010770 156.9455 203.2257 15.07482248149450
NETSAT-1                
1 46506U 20068W   23171.83955926  .00004876  00000+0  32805-3 0  9993
2 46506  97.7630 117.3847 0009012 162.5994 197.5543 15.07178685149459
NETSAT-2                
1 46507U 20068X   23171.82660134  .00005626  00000+0  37377-3 0  9990
2 46507  97.7620 117.4159 0008154 167.9850 192.1573 15.07586846149403
